*******************************************************************************
 Revised: April 12, 2021       Solar System Barycenter                        0

 Dynamical point 
 ---------------
 The center of mass for the solar system. See object 10 for Sun ephemeris.
*******************************************************************************


*******************************************************************************
Ephemeris / WWW_USER Wed Feb  2 11:04:46 2022 Pasadena, USA      / Horizons    
*******************************************************************************
Target body name: Solar System Barycenter (0)     {source: DE441}
Center body name: Sun (10)                        {source: DE441}
Center-site name: BODYCENTRIC
*******************************************************************************
Start time      : A.D. 2028-Jan-01 00:09:00.0000 UT      
Stop  time      : A.D. 2028-Dec-31 23:59:00.0000 UT      
Step-size       : 40 minutes
*******************************************************************************
Target pole/equ : MARSIAU                         {East-longitude positive}
Target radii    : 696000.0 x 696000.0 x 696000.0 k{Equator, meridian, pole}    
Center geodetic : 0.00000000,0.00000000,0.0000000 {E-lon(deg),Lat(deg),Alt(km)}
Center cylindric: 0.00000000,0.00000000,0.0000000 {E-lon(deg),Dxy(km),Dz(km)}
Center pole/equ : IAU_SUN                         {East-longitude positive}
Center radii    : 696000.0 x 696000.0 x 696000.0 k{Equator, meridian, pole}    
Target primary  : Sun
Vis. interferer : None
Rel. light bend : Sun                             {source: DE441}
Rel. lght bnd GM: 1.3271E+11 km^3/s^2                                          
Atmos refraction: NO (AIRLESS)
RA format       : HMS
Time format     : CAL 
EOP file        : eop.220131.p220426                                           
EOP coverage    : DATA-BASED 1962-JAN-20 TO 2022-JAN-31. PREDICTS-> 2022-APR-25
Units conversion: 1 au= 149597870.700 km, c= 299792.458 km/s, 1 day= 86400.0 s 
Table cut-offs 1: Elevation (-90.0deg=NO ),Airmass     n.a.    , Daylight (NO )
Table cut-offs 2: Solar elongation (  0.0,180.0=NO ),Local Hour Angle( 0.0=NO )
Table cut-offs 3: RA/DEC angular rate (     0.0=NO )                           
*******************************************************************************
 Date__(UT)__HR:MN     R.A._____(ICRF)_____DEC             delta      deldot
****************************************************************************
$$SOE
 2028-Jul-15 16:49     07 57 12.33 +19 53 35.6  0.00256089324840  -0.0073349
 2028-Jul-15 17:29     07 57 12.84 +19 53 34.2  0.00256077557570  -0.0073348
 2028-Jul-15 18:09     07 57 13.34 +19 53 32.7  0.00256065790432  -0.0073347
 2028-Jul-15 18:49     07 57 13.85 +19 53 31.2  0.00256054023428  -0.0073346
 2028-Jul-15 19:29     07 57 14.36 +19 53 29.8  0.00256042256556  -0.0073345
 2028-Jul-15 20:09     07 57 14.87 +19 53 28.3  0.00256030489817  -0.0073345
 2028-Jul-15 20:49     07 57 15.38 +19 53 26.8  0.00256018723210  -0.0073344
 2028-Jul-15 21:29     07 57 15.89 +19 53 25.4  0.00256006956735  -0.0073343
 2028-Jul-15 22:09     07 57 16.40 +19 53 23.9  0.00255995190392  -0.0073342
 2028-Jul-15 22:49     07 57 16.90 +19 53 22.4  0.00255983424182  -0.0073341
 2028-Jul-15 23:29     07 57 17.41 +19 53 21.0  0.00255971658103  -0.0073340
 2028-Jul-16 00:09     07 57 17.92 +19 53 19.5  0.00255959892156  -0.0073340
 2028-Jul-16 00:49     07 57 18.43 +19 53 18.0  0.00255948126341  -0.0073339
 2028-Jul-16 01:29     07 57 18.94 +19 53 16.5  0.00255936360658  -0.0073338
 2028-Jul-16 02:09     07 57 19.45 +19 53 15.1  0.00255924595106  -0.0073337
 2028-Jul-16 02:49     07 57 19.95 +19 53 13.6  0.00255912829685  -0.0073336
 2028-Jul-16 03:29     07 57 20.46 +19 53 12.1  0.00255901064395  -0.0073336
 2028-Jul-16 04:09     07 57 20.97 +19 53 10.7  0.00255889299237  -0.0073335
 2028-Jul-16 04:49     07 57 21.48 +19 53 09.2  0.00255877534209  -0.0073334
 2028-Jul-16 05:29     07 57 21.99 +19 53 07.7  0.00255865769312  -0.0073333
 2028-Jul-16 06:09     07 57 22.50 +19 53 06.3  0.00255854004546  -0.0073332
 2028-Jul-16 06:49     07 57 23.01 +19 53 04.8  0.00255842239911  -0.0073331
 2028-Jul-16 07:29     07 57 23.52 +19 53 03.3  0.00255830475406  -0.0073331
 2028-Jul-16 08:09     07 57 24.02 +19 53 01.8  0.00255818711031  -0.0073330
 2028-Jul-16 08:49     07 57 24.53 +19 53 00.4  0.00255806946787  -0.0073329
 2028-Jul-16 09:29     07 57 25.04 +19 52 58.9  0.00255795182673  -0.0073328
 2028-Jul-16 10:09     07 57 25.55 +19 52 57.4  0.00255783418688  -0.0073327
 2028-Jul-16 10:49     07 57 26.06 +19 52 56.0  0.00255771654834  -0.0073327
 2028-Jul-16 11:29     07 57 26.57 +19 52 54.5  0.00255759891110  -0.0073326
 2028-Jul-16 12:09     07 57 27.08 +19 52 53.0  0.00255748127515  -0.0073325
 2028-Jul-16 12:49     07 57 27.59 +19 52 51.6  0.00255736364049  -0.0073324
 2028-Jul-16 13:29     07 57 28.09 +19 52 50.1  0.00255724600714  -0.0073323
 2028-Jul-16 14:09     07 57 28.60 +19 52 48.6  0.00255712837507  -0.0073323
 2028-Jul-16 14:49     07 57 29.11 +19 52 47.1  0.00255701074430  -0.0073322
 2028-Jul-16 15:29     07 57 29.62 +19 52 45.7  0.00255689311481  -0.0073321
 2028-Jul-16 16:09     07 57 30.13 +19 52 44.2  0.00255677548662  -0.0073320
 2028-Jul-16 16:49     07 57 30.64 +19 52 42.7  0.00255665785971  -0.0073319
 2028-Jul-16 17:29     07 57 31.15 +19 52 41.2  0.00255654023410  -0.0073319
 2028-Jul-16 18:09     07 57 31.66 +19 52 39.8  0.00255642260976  -0.0073318
 2028-Jul-16 18:49     07 57 32.17 +19 52 38.3  0.00255630498672  -0.0073317
 2028-Jul-16 19:29     07 57 32.67 +19 52 36.8  0.00255618736496  -0.0073316
 2028-Jul-16 20:09     07 57 33.18 +19 52 35.4  0.00255606974448  -0.0073315
 2028-Jul-16 20:49     07 57 33.69 +19 52 33.9  0.00255595212528  -0.0073315
 2028-Jul-16 21:29     07 57 34.20 +19 52 32.4  0.00255583450736  -0.0073314
 2028-Jul-16 22:09     07 57 34.71 +19 52 30.9  0.00255571689072  -0.0073313
 2028-Jul-16 22:49     07 57 35.22 +19 52 29.5  0.00255559927536  -0.0073312
 2028-Jul-16 23:29     07 57 35.73 +19 52 28.0  0.00255548166128  -0.0073311
 2028-Jul-17 00:09     07 57 36.24 +19 52 26.5  0.00255536404847  -0.0073311
 2028-Jul-17 00:49     07 57 36.75 +19 52 25.0  0.00255524643694  -0.0073310
 2028-Jul-17 01:29     07 57 37.26 +19 52 23.6  0.00255512882668  -0.0073309
 2028-Jul-17 02:09     07 57 37.76 +19 52 22.1  0.00255501121769  -0.0073308
 2028-Jul-17 02:49     07 57 38.27 +19 52 20.6  0.00255489360998  -0.0073307
 2028-Jul-17 03:29     07 57 38.78 +19 52 19.1  0.00255477600353  -0.0073307
 2028-Jul-17 04:09     07 57 39.29 +19 52 17.7  0.00255465839836  -0.0073306
 2028-Jul-17 04:49     07 57 39.80 +19 52 16.2  0.00255454079445  -0.0073305
 2028-Jul-17 05:29     07 57 40.31 +19 52 14.7  0.00255442319181  -0.0073304
 2028-Jul-17 06:09     07 57 40.82 +19 52 13.2  0.00255430559044  -0.0073303
 2028-Jul-17 06:49     07 57 41.33 +19 52 11.8  0.00255418799033  -0.0073303
 2028-Jul-17 07:29     07 57 41.84 +19 52 10.3  0.00255407039148  -0.0073302
 2028-Jul-17 08:09     07 57 42.35 +19 52 08.8  0.00255395279390  -0.0073301
 2028-Jul-17 08:49     07 57 42.86 +19 52 07.3  0.00255383519758  -0.0073300
 2028-Jul-17 09:29     07 57 43.37 +19 52 05.9  0.00255371760251  -0.0073299
 2028-Jul-17 10:09     07 57 43.88 +19 52 04.4  0.00255360000871  -0.0073299
 2028-Jul-17 10:49     07 57 44.38 +19 52 02.9  0.00255348241617  -0.0073298
 2028-Jul-17 11:29     07 57 44.89 +19 52 01.4  0.00255336482488  -0.0073297
 2028-Jul-17 12:09     07 57 45.40 +19 52 00.0  0.00255324723485  -0.0073296
 2028-Jul-17 12:49     07 57 45.91 +19 51 58.5  0.00255312964607  -0.0073296
 2028-Jul-17 13:29     07 57 46.42 +19 51 57.0  0.00255301205855  -0.0073295
 2028-Jul-17 14:09     07 57 46.93 +19 51 55.5  0.00255289447228  -0.0073294
 2028-Jul-17 14:49     07 57 47.44 +19 51 54.0  0.00255277688726  -0.0073293
 2028-Jul-17 15:29     07 57 47.95 +19 51 52.6  0.00255265930350  -0.0073292
 2028-Jul-17 16:09     07 57 48.46 +19 51 51.1  0.00255254172098  -0.0073292
 2028-Jul-17 16:49     07 57 48.97 +19 51 49.6  0.00255242413971  -0.0073291
 2028-Jul-17 17:29     07 57 49.48 +19 51 48.1  0.00255230655969  -0.0073290
 2028-Jul-17 18:09     07 57 49.99 +19 51 46.7  0.00255218898091  -0.0073289
 2028-Jul-17 18:49     07 57 50.50 +19 51 45.2  0.00255207140338  -0.0073289
 2028-Jul-17 19:29     07 57 51.01 +19 51 43.7  0.00255195382710  -0.0073288
 2028-Jul-17 20:09     07 57 51.52 +19 51 42.2  0.00255183625205  -0.0073287
 2028-Jul-17 20:49     07 57 52.03 +19 51 40.7  0.00255171867825  -0.0073286
 2028-Jul-17 21:29     07 57 52.54 +19 51 39.3  0.00255160110569  -0.0073285
 2028-Jul-17 22:09     07 57 53.05 +19 51 37.8  0.00255148353437  -0.0073285
 2028-Jul-17 22:49     07 57 53.56 +19 51 36.3  0.00255136596429  -0.0073284
 2028-Jul-17 23:29     07 57 54.06 +19 51 34.8  0.00255124839545  -0.0073283
 2028-Jul-18 00:09     07 57 54.57 +19 51 33.3  0.00255113082785  -0.0073282
 2028-Jul-18 00:49     07 57 55.08 +19 51 31.9  0.00255101326148  -0.0073282
 2028-Jul-18 01:29     07 57 55.59 +19 51 30.4  0.00255089569634  -0.0073281
 2028-Jul-18 02:09     07 57 56.10 +19 51 28.9  0.00255077813244  -0.0073280
 2028-Jul-18 02:49     07 57 56.61 +19 51 27.4  0.00255066056978  -0.0073279
 2028-Jul-18 03:29     07 57 57.12 +19 51 25.9  0.00255054300834  -0.0073279
 2028-Jul-18 04:09     07 57 57.63 +19 51 24.5  0.00255042544814  -0.0073278
 2028-Jul-18 04:49     07 57 58.14 +19 51 23.0  0.00255030788916  -0.0073277
 2028-Jul-18 05:29     07 57 58.65 +19 51 21.5  0.00255019033142  -0.0073276
 2028-Jul-18 06:09     07 57 59.16 +19 51 20.0  0.00255007277490  -0.0073275
 2028-Jul-18 06:49     07 57 59.67 +19 51 18.5  0.00254995521961  -0.0073275
 2028-Jul-18 07:29     07 58 00.18 +19 51 17.1  0.00254983766554  -0.0073274
 2028-Jul-18 08:09     07 58 00.69 +19 51 15.6  0.00254972011270  -0.0073273
 2028-Jul-18 08:49     07 58 01.20 +19 51 14.1  0.00254960256108  -0.0073272
